EXPRESS-AM5             
1 39487U 13077A   16206.89920649 -.00000293  00000-0  00000+0 0  9995
2 39487   0.0296 140.8189 0001127 225.7262  40.2277  1.00270579 10136
GSAT-14                 
1 39498U 14001A   16205.95540172 -.00000087  00000-0  00000+0 0  9991
2 39498   0.0594 262.4469 0001281 283.5395 174.0062  1.00271517  9332
THAICOM 6               
1 39500U 14002A   16207.53914325 -.00000134  00000-0  00000+0 0  9990
2 39500   0.0577 124.1406 0004805  17.8734  74.2257  1.00270207  9299
TDRS 12                 
1 39504U 14004A   16206.20967813 -.00000279  00000-0  00000+0 0  9999
2 39504   6.3097 336.5593 0003342 206.3970 153.7457  1.00264471  9209
ABS-2                   
1 39508U 14006A   16205.95281824 -.00000097  00000-0  00000+0 0  9995
2 39508   0.0403 299.7081 0002931 179.2490 241.0665  1.00271989  9085
ATHENA-FIDUS            
1 39509U 14006B   16206.05558084  .00000143  00000-0  00000-0 0  9995
2 39509   0.0162  50.0208 0001036  77.6986 232.2900  1.00270330  8838
TURKSAT 4A              
1 39522U 14007A   16206.04395909  .00000135  00000-0  00000+0 0  9995
2 39522   0.0610 265.9687 0001520 276.1442 177.8806  1.00271714  8960
EXPRESS-AT1             
1 39612U 14010A   16207.09848087  .00000066  00000-0  00000+0 0  9998
2 39612   0.0441 243.1470 0000264 235.1751 276.3559  1.00272941  8819
EXPRESS-AT2             
1 39613U 14010B   16206.89920649 -.00000294  00000-0  00000+0 0  9995
2 39613   0.0499 253.8907 0000737  35.3859 117.3153  1.00271333  8649
AMAZONAS 4A             
1 39616U 14011A   16207.32647574 -.00000296  00000-0  00000+0 0  9993
2 39616   0.0662  72.4821 0004053  22.0516 265.5058  1.00269839  8639
ASTRA 5B                
1 39617U 14011B   16206.90301463  .00000142  00000-0  00000-0 0  9991
2 39617   0.0296  28.9032 0002649 105.7332 164.9870  1.00272772  8440
IRNSS-1B                
1 39635U 14017A   16205.84159183  .00000065  00000-0  00000+0 0  9992
2 39635  29.6774 300.0258 0021923 182.3045 177.7619  1.00278234  8554
LUCH 5V                 
1 39727U 14023A   16207.02772740 -.00000279  00000-0  00000+0 0  9991
2 39727   3.3373 299.7366 0002306 214.4447 253.6758  1.00274142526288
KAZSAT 3                
1 39728U 14023B   16206.99548165  .00000048  00000-0  00000+0 0  9992
2 39728   0.0150  68.4979 0000395 252.9535  38.5391  1.00272278  8206
EUTELSAT 3B             
1 39773U 14030A   16207.12688355  .00000007  00000-0  00000+0 0  9997
2 39773   0.0590   8.2630 0002505  93.9212 249.8381  1.00270377  7977
ASIASAT 8               
1 40107U 14046A   16207.46928742 -.00000346  00000-0  00000+0 0  9998
2 40107   0.0094  22.0157 0001348 104.0274  91.8202  1.00273324  7267
ASIASAT 6               
1 40141U 14052A   16206.87549429 -.00000375  00000-0  00000-0 0  9991
2 40141   0.0155  70.0481 0000569  61.3586 246.6885  1.00272334  6829
OPTUS 10                
1 40146U 14054A   16205.70599465 -.00000085  00000-0  00000+0 0  9991
2 40146   0.0584  55.8076 0001670  67.4117 236.7911  1.00271637  6872
MEASAT-3B               
1 40147U 14054B   16206.90406930 -.00000254  00000-0  00000-0 0  9998
2 40147   0.0369 326.0513 0001891 103.7868 290.1758  1.00272049  6663
LUCH (OLYMP)            
1 40258U 14058A   16207.07442443 -.00000024  00000-0  00000+0 0  9997
2 40258   0.0264  71.4901 0000692 228.7442  28.6861  1.00272779  6698
HIMAWARI 8              
1 40267U 14060A   16205.88195377 -.00000286  00000-0  00000+0 0  9998
2 40267   0.0156 108.7974 0001213  39.6189 251.7992  1.00273178  6619
IRNSS-1C                
1 40269U 14061A   16206.65017206 -.00000173  00000-0  00000+0 0  9996
2 40269   3.6636 259.6498 0018147 359.2304   0.9000  1.00275839  6579
INTELSAT 30 (IS-30)     
1 40271U 14062A   16206.17887321 -.00000162  00000-0  00000-0 0  9999
2 40271   0.0133  62.7009 0001922  33.5741 175.3837  1.00271625  6446
ARSAT 1                 
1 40272U 14062B   16207.26242782 -.00000273  00000-0  00000+0 0  9999
2 40272   0.0508 254.6937 0001189 246.7938 184.5764  1.00271733  6649
EXPRESS-AM6             
1 40277U 14064A   16206.89070696  .00000086  00000-0  00000+0 0  9998
2 40277   0.0226 157.0910 0000276 118.1777  41.3963  1.00271893  6421
GSAT-16                 
1 40332U 14078A   16206.00792076  .00000074  00000-0  00000+0 0  9998
2 40332   0.0984 266.8537 0007130 186.2145 267.0076  1.00269542  6014
DIRECTV 14              
1 40333U 14078B   16206.35599375 -.00000138  00000-0  00000+0 0  9996
2 40333   0.0279 286.9344 0001893 103.3431 301.1489  1.00276774  5998
YAMAL 401               
1 40345U 14082A   16207.03355642 -.00000241  00000-0  00000+0 0  9992
2 40345   0.0432 138.8600 0001173 133.0706 133.2475  1.00271279  6173
ASTRA 2G                
1 40364U 14089A   16205.08508444  .00000140  00000-0  00000-0 0  9991
2 40364   0.0331 348.7777 0004272  94.5504 276.7153  1.00272288  5715
FENGYUN 2G              
1 40367U 14090A   16207.46928742 -.00000342  00000-0  00000+0 0  9991
2 40367   1.1101 271.1053 0003687 311.1088 354.9726  1.00266898  5800
INMARSAT 5-F2           
1 40384U 15005A   16207.19725602 -.00000298  00000-0  00000+0 0  9997
2 40384   0.0200  60.9033 0000439 199.3199  59.1122  1.00269374  5435
ABS-3A                  
1 40424U 15010A   16205.17124384 -.00000036  00000-0  00000-0 0  9995
2 40424   0.0128  57.2286 0001416 345.9231 316.8540  1.00272001  5179
EUTELSAT 115 WEST B     
1 40425U 15010B   16206.47848482 -.00000036  00000-0  00000-0 0  9992
2 40425   0.0011 162.1982 0000075  78.7306 119.0704  1.00269126  5162
EXPRESS-AM7             
1 40505U 15012A   16206.59660959  .00000139  00000-0  00000-0 0  9990
2 40505   0.0226  48.6728 0002893  79.0082  69.8204  1.00269789  5117
IRNSS-1D                
1 40547U 15018A   16206.68205378 -.00000317  00000-0  00000-0 0  9991
2 40547  29.6744 300.1574 0021134 183.3778 176.6803  1.00276778  4757
BEIDOU I1-S             
1 40549U 15019A   16205.85119319 -.00000169  00000-0  00000+0 0  9995
2 40549  54.6814 337.5169 0043496 179.2815 184.3008  1.00255093  4839
THOR 7                  
1 40613U 15022A   16207.05004758 -.00000021  00000-0  00000+0 0  9992
2 40613   0.0245 178.2948 0002900 302.0135 200.2306  1.00272275  4576
TURKMENALEM52E/MONACOSAT
1 40617U 15023A   16207.01353414  .00000091  00000-0  00000+0 0  9995
2 40617   0.0154  50.1738 0002300  73.5256 236.3160  1.00270754  4604
DIRECTV 15              
1 40663U 15026A   16206.44490630 -.00000115  00000-0  00000+0 0  9995
2 40663   0.0204  71.3455 0000851 315.4799 333.1728  1.00272803  4299
SKY MEXICO-1            
1 40664U 15026B   16207.37584186 -.00000247  00000-0  00000+0 0  9995
2 40664   0.0131  49.5001 0002037  82.3032 228.2141  1.00269898  4306
METEOSAT-11 (MSG-4)     
1 40732U 15034A   16206.87779445 -.00000039  00000-0  00000+0 0  9997
2 40732   2.4378 255.3821 0000522  54.5210 305.6197  1.00276405  3801
STAR ONE C4             
1 40733U 15034B   16206.35419591 -.00000277  00000-0  00000+0 0  9998
2 40733   0.0208  18.3339 0001184  84.7804 256.8928  1.00272085  3795
INTELSAT 34 (IS-34)     
1 40874U 15039A   16206.31401524 -.00000297  00000-0  00000+0 0  9994
2 40874   0.0193  54.6242 0000735 328.4466 336.9325  1.00269899  3434
EUTELSAT 8 WEST B       
1 40875U 15039B   16206.18254290 -.00000077  00000-0  00000-0 0  9993
2 40875   0.0641  18.8813 0002506 100.4328 240.7051  1.00272060  3445
GSAT-6                  
1 40880U 15041A   16206.92752773 -.00000177  00000-0  00000-0 0  9994
2 40880   0.5086 271.0767 0006132 351.8670  96.9795  1.00271521  3392
INMARSAT 5-F3           
1 40882U 15042A   16205.66275842  .00000039  00000-0  00000+0 0  9999
2 40882   0.0212  63.1285 0000278  49.5456 247.3289  1.00269937  3302
TJS-1                   
1 40892U 15046A   16206.64709340 -.00000168  00000-0  00000+0 0  9992
2 40892   0.0894 252.7560 0004757 118.6595 319.3573  1.00272783  3308
EXPRESS-AM8             
1 40895U 15048A   16206.86808044 -.00000124  00000-0  00000+0 0  9994
2 40895   0.0312 221.9380 0000247 300.3957  79.1569  1.00271488  3134
BEIDOU I2-S             
1 40938U 15053A   16207.24278906 -.00000161  00000-0  00000+0 0  9990
2 40938  54.6467 300.3668 0044695 169.5307  17.4416  1.00280605  3124
SKY MUSTER (NBN1A)      
1 40940U 15054A   16203.77729158 -.00000286  00000-0  00000+0 0  9996
2 40940   0.0167  46.8699 0002136  79.4083 233.7415  1.00271797  3022
ARSAT 2                 
1 40941U 15054B   16206.38467288 -.00000236  00000-0  00000+0 0  9995
2 40941   0.0533 262.3942 0001371 236.7714 220.8386  1.00270449  3077
MORELOS 3               
1 40946U 15056A   16206.39306058 -.00000053  00000-0  00000+0 0  9997
2 40946   6.8176 330.7880 0003645 185.5011 174.6436  1.00272326  3042
APSTAR 9                
1 40982U 15059A   16206.89784148 -.00000278  00000-0  00000+0 0  9994
2 40982   0.0396 270.8086 0000528 286.2442 211.1943  1.00273552  2915
TURKSAT 4B              
1 40984U 15060A   16206.02187103  .00000104  00000-0  00000+0 0  9998
2 40984   0.0100  69.2505 0002300  59.8348 230.9293  1.00272802  2863
CHINASAT 2C (ZX 2C)     
1 41021U 15063A   16207.02757606 -.00000336  00000-0  00000+0 0  9994
2 41021   0.0516 237.2146 0001341 239.7934 299.4809  1.00268095  2771
GSAT-15                 
1 41028U 15065A   16205.90113919 -.00000269  00000-0  00000+0 0  9996
2 41028   0.0430 251.8355 0001425 167.4835 300.6892  1.00271167  2611
BADR-7 (ARABSAT-6B)     
1 41029U 15065B   16206.08821811  .00000133  00000-0  00000+0 0  9993
2 41029   0.0135 242.8525 0003560 335.2459 141.8764  1.00271232  2663
LAOSAT 1                
1 41034U 15067A   16205.80412036 -.00000354  00000-0  00000-0 0  9992
2 41034   0.0499 253.0617 0002454 223.1546 243.8033  1.00266220  2619
TELSTAR 12V             
1 41036U 15068A   16206.20185030 -.00000130  00000-0  00000-0 0  9993
2 41036   0.0281 190.9455 0001962 317.7863 211.2740  1.00271799  2389
